{
  "type": "FeatureCollection",
  "features": [
    {
      "type": "Feature",
      "properties": {
        "OBJECT_NAME": "FENGYUN 1C DEB",
        "OBJECT_ID": "1999-025EGY",
        "EPOCH": "2025-11-28T03:54:07.567776",
        "MEAN_MOTION": 14.28755516,
        "ECCENTRICITY": 0.00192551,
        "INCLINATION": 98.7665,
        "RA_OF_ASC_NODE": 46.1957,
        "ARG_OF_PERICENTER": 113.3298,
        "MEAN_ANOMALY": 246.9912,
        "EPHEMERIS_TYPE": 0,
        "CLASSIFICATION_TYPE": "U",
        "NORAD_CAT_ID": 37430,
        "ELEMENT_SET_NO": 999,
        "REV_AT_EPOCH": 61493,
        "BSTAR": 0.0019671813,
        "MEAN_MOTION_DOT": 4.92e-05,
        "MEAN_MOTION_DDOT": 0,
        "norad_id": 37430,
        "name": "FENGYUN 1C DEB",
        "group": "fengyun-1c-debris",
        "longitude_deg": NaN,
        "latitude_deg": NaN,
        "alt_km": NaN,
        "orbit_class": "HEO",
        "timestamp": "2025-11-30T08:43:09.402816+00:00"
      },
      "geometry": {
        "type": "Point",
        "coordinates": [
          NaN,
          NaN
        ]
      }
    },
    {
      "type": "Feature",
      "properties": {
        "OBJECT_NAME": "FENGYUN 1C DEB",
        "OBJECT_ID": "1999-025EHA",
        "EPOCH": "2025-11-29T18:29:17.310336",
        "MEAN_MOTION": 14.53246296,
        "ECCENTRICITY": 0.0182907,
        "INCLINATION": 98.186,
        "RA_OF_ASC_NODE": 347.337,
        "ARG_OF_PERICENTER": 328.2728,
        "MEAN_ANOMALY": 30.7548,
        "EPHEMERIS_TYPE": 0,
        "CLASSIFICATION_TYPE": "U",
        "NORAD_CAT_ID": 37432,
        "ELEMENT_SET_NO": 999,
        "REV_AT_EPOCH": 8188,
        "BSTAR": 0.00090502,
        "MEAN_MOTION_DOT": 4.631e-05,
        "MEAN_MOTION_DDOT": 0,
        "norad_id": 37432,
        "name": "FENGYUN 1C DEB",
        "group": "fengyun-1c-debris",
        "longitude_deg": NaN,
        "latitude_deg": NaN,
        "alt_km": NaN,
        "orbit_class": "HEO",
        "timestamp": "2025-11-30T08:43:09.402823+00:00"
      },
      "geometry": {
        "type": "Point",
        "coordinates": [
          NaN,
          NaN
        ]
      }
    },
    {
      "type": "Feature",
      "properties": {
        "OBJECT_NAME": "FENGYUN 1C DEB",
        "OBJECT_ID": "1999-025EHD",
        "EPOCH": "2025-11-25T08:29:53.941056",
        "MEAN_MOTION": 14.22251999,
        "ECCENTRICITY": 0.00414419,
        "INCLINATION": 98.6491,
        "RA_OF_ASC_NODE": 5.9944,
        "ARG_OF_PERICENTER": 65.1399,
        "MEAN_ANOMALY": 295.4079,
        "EPHEMERIS_TYPE": 0,
        "CLASSIFICATION_TYPE": "U",
        "NORAD_CAT_ID": 37435,
        "ELEMENT_SET_NO": 999,
        "REV_AT_EPOCH": 88692,
        "BSTAR": 0.0012428373,
        "MEAN_MOTION_DOT": 2.741e-05,
        "MEAN_MOTION_DDOT": 0,
        "norad_id": 37435,
        "name": "FENGYUN 1C DEB",
        "group": "fengyun-1c-debris",
        "longitude_deg": NaN,
        "latitude_deg": NaN,
        "alt_km": NaN,
        "orbit_class": "HEO",
        "timestamp": "2025-11-30T08:43:09.402829+00:00"
      },
      "geometry": {
        "type": "Point",
        "coordinates": [
          NaN,
          NaN
        ]
      }
    },
    {
      "type": "Feature",
      "properties": {
        "OBJECT_NAME": "FENGYUN 1C DEB",
        "OBJECT_ID": "1999-025EHE",
        "EPOCH": "2025-11-28T08:11:21.765696",
        "MEAN_MOTION": 14.06306083,
        "ECCENTRICITY": 0.00592044,
        "INCLINATION": 98.9395,
        "RA_OF_ASC_NODE": 27.0172,
        "ARG_OF_PERICENTER": 187.9897,
        "MEAN_ANOMALY": 172.0334,
        "EPHEMERIS_TYPE": 0,
        "CLASSIFICATION_TYPE": "U",
        "NORAD_CAT_ID": 37436,
        "ELEMENT_SET_NO": 999,
        "REV_AT_EPOCH": 63796,
        "BSTAR": 0.00051758913,
        "MEAN_MOTION_DOT": 8.23e-06,
        "MEAN_MOTION_DDOT": 0,
        "norad_id": 37436,
        "name": "FENGYUN 1C DEB",
        "group": "fengyun-1c-debris",
        "longitude_deg": NaN,
        "latitude_deg": NaN,
        "alt_km": NaN,
        "orbit_class": "HEO",
        "timestamp": "2025-11-30T08:43:09.402836+00:00"
      },
      "geometry": {
        "type": "Point",
        "coordinates": [
          NaN,
          NaN
        ]
      }
    },
    {
      "type": "Feature",
      "properties": {
        "OBJECT_NAME": "FENGYUN 1C DEB",
        "OBJECT_ID": "1999-025EHF",
        "EPOCH": "2025-11-09T05:37:32.109024",
        "MEAN_MOTION": 14.18747647,
        "ECCENTRICITY": 0.01128943,
        "INCLINATION": 98.5848,
        "RA_OF_ASC_NODE": 306.1684,
        "ARG_OF_PERICENTER": 144.6849,
        "MEAN_ANOMALY": 232.0897,
        "EPHEMERIS_TYPE": 0,
        "CLASSIFICATION_TYPE": "U",
        "NORAD_CAT_ID": 37437,
        "ELEMENT_SET_NO": 999,
        "REV_AT_EPOCH": 63516,
        "BSTAR": 0.00060871278,
        "MEAN_MOTION_DOT": 1.305e-05,
        "MEAN_MOTION_DDOT": 0,
        "norad_id": 37437,
        "name": "FENGYUN 1C DEB",
        "group": "fengyun-1c-debris",
        "longitude_deg": NaN,
        "latitude_deg": NaN,
        "alt_km": NaN,
        "orbit_class": "HEO",
        "timestamp": "2025-11-30T08:43:09.402843+00:00"
      },
      "geometry": {
        "type": "Point",
        "coordinates": [
          NaN,
          NaN
        ]
      }
    },
    {
      "type": "Feature",
      "properties": {
        "OBJECT_NAME": "FENGYUN 1C DEB",
        "OBJECT_ID": "1999-025EHG",
        "EPOCH": "2025-11-28T09:01:19.070688",
        "MEAN_MOTION": 14.15462109,
        "ECCENTRICITY": 0.00281971,
        "INCLINATION": 98.7424,
        "RA_OF_ASC_NODE": 11.6443,
        "ARG_OF_PERICENTER": 262.606,
        "MEAN_ANOMALY": 97.1909,
        "EPHEMERIS_TYPE": 0,
        "CLASSIFICATION_TYPE": "U",
        "NORAD_CAT_ID": 37438,
        "ELEMENT_SET_NO": 999,
        "REV_AT_EPOCH": 59932,
        "BSTAR": 0.00070293459,
        "MEAN_MOTION_DOT": 1.334e-05,
        "MEAN_MOTION_DDOT": 0,
        "norad_id": 37438,
        "name": "FENGYUN 1C DEB",
        "group": "fengyun-1c-debris",
        "longitude_deg": NaN,
        "latitude_deg": NaN,
        "alt_km": NaN,
        "orbit_class": "HEO",
        "timestamp": "2025-11-30T08:43:09.402851+00:00"
      },
      "geometry": {
        "type": "Point",
        "coordinates": [
          NaN,
          NaN
        ]
      }
    },
    {
      "type": "Feature",
      "properties": {
        "OBJECT_NAME": "FENGYUN 1C DEB",
        "OBJECT_ID": "1999-025EHK",
        "EPOCH": "2025-11-24T20:14:47.247360",
        "MEAN_MOTION": 13.14168233,
        "ECCENTRICITY": 0.0507552,
        "INCLINATION": 99.1471,
        "RA_OF_ASC_NODE": 178.0783,
        "ARG_OF_PERICENTER": 97.5512,
        "MEAN_ANOMALY": 268.3538,
        "EPHEMERIS_TYPE": 0,
        "CLASSIFICATION_TYPE": "U",
        "NORAD_CAT_ID": 37441,
        "ELEMENT_SET_NO": 999,
        "REV_AT_EPOCH": 81937,
        "BSTAR": 0.0015546,
        "MEAN_MOTION_DOT": 1.069e-05,
        "MEAN_MOTION_DDOT": 0,
        "norad_id": 37441,
        "name": "FENGYUN 1C DEB",
        "group": "fengyun-1c-debris",
        "longitude_deg": NaN,
        "latitude_deg": NaN,
        "alt_km": NaN,
        "orbit_class": "HEO",
        "timestamp": "2025-11-30T08:43:09.402857+00:00"
      },
      "geometry": {
        "type": "Point",
        "coordinates": [
          NaN,
          NaN
        ]
      }
    },
    {
      "type": "Feature",
      "properties": {
        "OBJECT_NAME": "FENGYUN 1C DEB",
        "OBJECT_ID": "1999-025EHN",
        "EPOCH": "2025-11-29T23:36:05.868000",
        "MEAN_MOTION": 14.47914692,
        "ECCENTRICITY": 0.0245817,
        "INCLINATION": 99.084,
        "RA_OF_ASC_NODE": 53.5461,
        "ARG_OF_PERICENTER": 27.1708,
        "MEAN_ANOMALY": 334.2102,
        "EPHEMERIS_TYPE": 0,
        "CLASSIFICATION_TYPE": "U",
        "NORAD_CAT_ID": 37444,
        "ELEMENT_SET_NO": 999,
        "REV_AT_EPOCH": 64966,
        "BSTAR": 0.00069892,
        "MEAN_MOTION_DOT": 3.735e-05,
        "MEAN_MOTION_DDOT": 0,
        "norad_id": 37444,
        "name": "FENGYUN 1C DEB",
        "group": "fengyun-1c-debris",
        "longitude_deg": NaN,
        "latitude_deg": NaN,
        "alt_km": NaN,
        "orbit_class": "HEO",
        "timestamp": "2025-11-30T08:43:09.402865+00:00"
      },
      "geometry": {
        "type": "Point",
        "coordinates": [
          NaN,
          NaN
        ]
      }
    },
    {
      "type": "Feature",
      "properties": {
        "OBJECT_NAME": "FENGYUN 1C DEB",
        "OBJECT_ID": "1999-025EHS",
        "EPOCH": "2025-11-29T22:53:43.166112",
        "MEAN_MOTION": 13.86996529,
        "ECCENTRICITY": 0.0307823,
        "INCLINATION": 99.3217,
        "RA_OF_ASC_NODE": 38.5841,
        "ARG_OF_PERICENTER": 93.0368,
        "MEAN_ANOMALY": 270.6054,
        "EPHEMERIS_TYPE": 0,
        "CLASSIFICATION_TYPE": "U",
        "NORAD_CAT_ID": 37448,
        "ELEMENT_SET_NO": 999,
        "REV_AT_EPOCH": 62198,
        "BSTAR": 0.0014969,
        "MEAN_MOTION_DOT": 2.506e-05,
        "MEAN_MOTION_DDOT": 0,
        "norad_id": 37448,
        "name": "FENGYUN 1C DEB",
        "group": "fengyun-1c-debris",
        "longitude_deg": NaN,
        "latitude_deg": NaN,
        "alt_km": NaN,
        "orbit_class": "HEO",
        "timestamp": "2025-11-30T08:43:09.402871+00:00"
      },
      "geometry": {
        "type": "Point",
        "coordinates": [
          NaN,
          NaN
        ]
      }
    }
  ]
}